{"type": "FeatureCollection", "features": [ {"type": "Feature", "properties": {"norad_id": 66806, "name": "STARLINK-36069", "group": "last-30-days", "lat": -12.777413049513685, "lon": 61.62827056954166, "alt_km": 343.9479163425949, "timestamp": "2025-12-16T17:51:09.661696+00:00", "meta": {"OBJECT_NAME": "STARLINK-36069", "OBJECT_ID": "2025-278R", "EPOCH": "2025-12-15T22:00:01.999584", "MEAN_MOTION": 15.78090831, "ECCENTRICITY": 0.00015221, "INCLINATION": 42.9981, "RA_OF_ASC_NODE": 232.5745, "ARG_OF_PERICENTER": 273.4, "MEAN_ANOMALY": 264.214, "EPHEMERIS_TYPE": 0, "CLASSIFICATION_TYPE": "U", "NORAD_CAT_ID": 66806, "ELEMENT_SET_NO": 999, "REV_AT_EPOCH": 325, "BSTAR": -0.0090359835, "MEAN_MOTION_DOT": -0.01410801, "MEAN_MOTION_DDOT": 0}, "tle": {"line1": "1 66806U 25278R   25349.91668981 -.01410801  00000+0 -90360-2 0  9997", "line2": "2 66806  42.9981 232.5745 0001522 273.4000 264.2140 15.78090831  3256"}}, "geometry": {"type": "Point", "coordinates": [61.62827056954166, -12.777413049513685]}}, {"type": "Feature", "properties": {"norad_id": 66807, "name": "STARLINK-36000", "group": "last-30-days", "lat": -16.622020085437526, "lon": 66.21331936666053, "alt_km": 344.94906343145794, "timestamp": "2025-12-16T17:51:09.661707+00:00", "meta": {"OBJECT_NAME": "STARLINK-36000", "OBJECT_ID": "2025-278S", "EPOCH": "2025-12-15T22:00:01.999584", "MEAN_MOTION": 15.77913676, "ECCENTRICITY": 0.00013789, "INCLINATION": 42.998, "RA_OF_ASC_NODE": 232.5579, "ARG_OF_PERICENTER": 278.1932, "MEAN_ANOMALY": 265.8827, "EPHEMERIS_TYPE": 0, "CLASSIFICATION_TYPE": "U", "NORAD_CAT_ID": 66807, "ELEMENT_SET_NO": 999, "REV_AT_EPOCH": 352, "BSTAR": -0.0092377721, "MEAN_MOTION_DOT": -0.01428377, "MEAN_MOTION_DDOT": 0}, "tle": {"line1": "1 66807U 25278S   25349.91668981 -.01428377  00000+0 -92378-2 0  9996", "line2": "2 66807  42.9980 232.5579 0001378 278.1932 265.8827 15.77913676  3525"}}, "geometry": {"type": "Point", "coordinates": [66.21331936666053, -16.622020085437526]}}, {"type": "Feature", "properties": {"norad_id": 66808, "name": "STARLINK-36071", "group": "last-30-days", "lat": -17.866153344946497, "lon": 67.76112086986964, "alt_km": 344.9539362841815, "timestamp": "2025-12-16T17:51:09.661717+00:00", "meta": {"OBJECT_NAME": "STARLINK-36071", "OBJECT_ID": "2025-278T", "EPOCH": "2025-12-15T22:00:01.999584", "MEAN_MOTION": 15.77868548, "ECCENTRICITY": 0.00014798, "INCLINATION": 42.998, "RA_OF_ASC_NODE": 232.5526, "ARG_OF_PERICENTER": 271.2874, "MEAN_ANOMALY": 274.8741, "EPHEMERIS_TYPE": 0, "CLASSIFICATION_TYPE": "U", "NORAD_CAT_ID": 66808, "ELEMENT_SET_NO": 999, "REV_AT_EPOCH": 346, "BSTAR": -0.0092911105, "MEAN_MOTION_DOT": -0.01433139, "MEAN_MOTION_DDOT": 0}, "tle": {"line1": "1 66808U 25278T   25349.91668981 -.01433139  00000+0 -92911-2 0  9992", "line2": "2 66808  42.9980 232.5526 0001479 271.2874 274.8741 15.77868548  3464"}}, "geometry": {"type": "Point", "coordinates": [67.76112086986964, -17.866153344946497]}}, {"type": "Feature", "properties": {"norad_id": 66809, "name": "STARLINK-35979", "group": "last-30-days", "lat": -21.499833511911447, "lon": 72.51535578128322, "alt_km": 346.0144969464982, "timestamp": "2025-12-16T17:51:09.661728+00:00", "meta": {"OBJECT_NAME": "STARLINK-35979", "OBJECT_ID": "2025-278U", "EPOCH": "2025-12-15T22:00:01.999584", "MEAN_MOTION": 15.77646777, "ECCENTRICITY": 0.00014797, "INCLINATION": 42.9981, "RA_OF_ASC_NODE": 232.5359, "ARG_OF_PERICENTER": 272.911, "MEAN_ANOMALY": 279.801, "EPHEMERIS_TYPE": 0, "CLASSIFICATION_TYPE": "U", "NORAD_CAT_ID": 66809, "ELEMENT_SET_NO": 999, "REV_AT_EPOCH": 346, "BSTAR": -0.009659821, "MEAN_MOTION_DOT": -0.01470149, "MEAN_MOTION_DDOT": 0}, "tle": {"line1": "1 66809U 25278U   25349.91668981 -.01470149  00000+0 -96598-2 0  9990", "line2": "2 66809  42.9981 232.5359 0001479 272.9110 279.8010 15.77646777  3463"}}, "geometry": {"type": "Point", "coordinates": [72.51535578128322, -21.499833511911447]}}, {"type": "Feature", "properties": {"norad_id": 66810, "name": "STARLINK-36046", "group": "last-30-days", "lat": -19.09945287413072, "lon": 69.33272403733064, "alt_km": 345.44437481016575, "timestamp": "2025-12-16T17:51:09.661741+00:00", "meta": {"OBJECT_NAME": "STARLINK-36046", "OBJECT_ID": "2025-278V", "EPOCH": "2025-12-15T22:00:01.999584", "MEAN_MOTION": 15.77789487, "ECCENTRICITY": 0.00014383, "INCLINATION": 42.9984, "RA_OF_ASC_NODE": 232.5472, "ARG_OF_PERICENTER": 275.6975, "MEAN_ANOMALY": 272.6734, "EPHEMERIS_TYPE": 0, "CLASSIFICATION_TYPE": "U", "NORAD_CAT_ID": 66810, "ELEMENT_SET_NO": 999, "REV_AT_EPOCH": 324, "BSTAR": -0.0094091753, "MEAN_MOTION_DOT": -0.01444619, "MEAN_MOTION_DDOT": 0}, "tle": {"line1": "1 66810U 25278V   25349.91668981 -.01444619  00000+0 -94092-2 0  9992", "line2": "2 66810  42.9984 232.5472 0001438 275.6975 272.6734 15.77789487  3244"}}, "geometry": {"type": "Point", "coordinates": [69.33272403733064, -19.09945287413072]}}, {"type": "Feature", "properties": {"norad_id": 66811, "name": "STARLINK-36045", "group": "last-30-days", "lat": -20.315013351271766, "lon": 70.9223924496868, "alt_km": 345.7297043598837, "timestamp": "2025-12-16T17:51:09.661751+00:00", "meta": {"OBJECT_NAME": "STARLINK-36045", "OBJECT_ID": "2025-278W", "EPOCH": "2025-12-15T22:00:01.999584", "MEAN_MOTION": 15.77706495, "ECCENTRICITY": 0.00014586, "INCLINATION": 42.9985, "RA_OF_ASC_NODE": 232.5416, "ARG_OF_PERICENTER": 273.5144, "MEAN_ANOMALY": 277.0673, "EPHEMERIS_TYPE": 0, "CLASSIFICATION_TYPE": "U", "NORAD_CAT_ID": 66811, "ELEMENT_SET_NO": 999, "REV_AT_EPOCH": 346, "BSTAR": -0.0095206598, "MEAN_MOTION_DOT": -0.01454901, "MEAN_MOTION_DDOT": 0}, "tle": {"line1": "1 66811U 25278W   25349.91668981 -.01454901  00000+0 -95207-2 0  9997", "line2": "2 66811  42.9985 232.5416 0001458 273.5144 277.0673 15.77706495  3464"}}, "geometry": {"type": "Point", "coordinates": [70.9223924496868, -20.315013351271766]}}, {"type": "Feature", "properties": {"norad_id": 66812, "name": "STARLINK-36054", "group": "last-30-days", "lat": -22.683955511948415, "lon": 74.15528964273831, "alt_km": 346.203978260849, "timestamp": "2025-12-16T17:51:09.661761+00:00", "meta": {"OBJECT_NAME": "STARLINK-36054", "OBJECT_ID": "2025-278X", "EPOCH": "2025-12-15T22:00:01.999584", "MEAN_MOTION": 15.77606489, "ECCENTRICITY": 0.00014391, "INCLINATION": 42.9982, "RA_OF_ASC_NODE": 232.531, "ARG_OF_PERICENTER": 273.7579, "MEAN_ANOMALY": 280.9969, "EPHEMERIS_TYPE": 0, "CLASSIFICATION_TYPE": "U", "NORAD_CAT_ID": 66812, "ELEMENT_SET_NO": 999, "REV_AT_EPOCH": 346, "BSTAR": -0.0096562001, "MEAN_MOTION_DOT": -0.01467274, "MEAN_MOTION_DDOT": 0}, "tle": {"line1": "1 66812U 25278X   25349.91668981 -.01467274  00000+0 -96562-2 0  9990", "line2": "2 66812  42.9982 232.5310 0001439 273.7579 280.9969 15.77606489  3461"}}, "geometry": {"type": "Point", "coordinates": [74.15528964273831, -22.683955511948415]}}, {"type": "Feature", "properties": {"norad_id": 66813, "name": "STARLINK-36042", "group": "last-30-days", "lat": -23.840725374074566, "lon": 75.80833722324199, "alt_km": 346.4457594367441, "timestamp": "2025-12-16T17:51:09.661772+00:00", "meta": {"OBJECT_NAME": "STARLINK-36042", "OBJECT_ID": "2025-278Y", "EPOCH": "2025-12-15T22:00:01.999584", "MEAN_MOTION": 15.77579693, "ECCENTRICITY": 0.00014423, "INCLINATION": 42.9982, "RA_OF_ASC_NODE": 232.5257, "ARG_OF_PERICENTER": 277.63, "MEAN_ANOMALY": 279.124, "EPHEMERIS_TYPE": 0, "CLASSIFICATION_TYPE": "U", "NORAD_CAT_ID": 66813, "ELEMENT_SET_NO": 999, "REV_AT_EPOCH": 346, "BSTAR": -0.0096787391, "MEAN_MOTION_DOT": -0.01468723, "MEAN_MOTION_DDOT": 0}, "tle": {"line1": "1 66813U 25278Y   25349.91668981 -.01468723  00000+0 -96787-2 0  9990", "line2": "2 66813  42.9982 232.5257 0001442 277.6300 279.1240 15.77579693  3469"}}, "geometry": {"type": "Point", "coordinates": [75.80833722324199, -23.840725374074566]}}, {"type": "Feature", "properties": {"norad_id": 66814, "name": "STARLINK-35984", "group": "last-30-days", "lat": -30.313681039941752, "lon": 86.33303184044793, "alt_km": 347.93907657775526, "timestamp": "2025-12-16T17:51:09.661782+00:00", "meta": {"OBJECT_NAME": "STARLINK-35984", "OBJECT_ID": "2025-278Z", "EPOCH": "2025-12-15T22:00:01.999584", "MEAN_MOTION": 15.77045297, "ECCENTRICITY": 0.00012499, "INCLINATION": 42.9983, "RA_OF_ASC_NODE": 232.4933, "ARG_OF_PERICENTER": 273.134, "MEAN_ANOMALY": 296.5003, "EPHEMERIS_TYPE": 0, "CLASSIFICATION_TYPE": "U", "NORAD_CAT_ID": 66814, "ELEMENT_SET_NO": 999, "REV_AT_EPOCH": 355, "BSTAR": -0.0095920676, "MEAN_MOTION_DOT": -0.01426248, "MEAN_MOTION_DDOT": 0}, "tle": {"line1": "1 66814U 25278Z   25349.91668981 -.01426248  00000+0 -95921-2 0  9996", "line2": "2 66814  42.9983 232.4933 0001249 273.1340 296.5003 15.77045297  3559"}}, "geometry": {"type": "Point", "coordinates": [86.33303184044793, -30.313681039941752]}}, {"type": "Feature", "properties": {"norad_id": 66815, "name": "STARLINK-35985", "group": "last-30-days", "lat": -29.302385761760124, "lon": 84.50948040683537, "alt_km": 347.86883509703966, "timestamp": "2025-12-16T17:51:09.661794+00:00", "meta": {"OBJECT_NAME": "STARLINK-35985", "OBJECT_ID": "2025-278AA", "EPOCH": "2025-12-15T22:00:01.999584", "MEAN_MOTION": 15.77078, "ECCENTRICITY": 0.00012994, "INCLINATION": 42.9982, "RA_OF_ASC_NODE": 232.4982, "ARG_OF_PERICENTER": 278.151, "MEAN_ANOMALY": 289.4809, "EPHEMERIS_TYPE": 0, "CLASSIFICATION_TYPE": "U", "NORAD_CAT_ID": 66815, "ELEMENT_SET_NO": 999, "REV_AT_EPOCH": 355, "BSTAR": -0.0095169424, "MEAN_MOTION_DOT": -0.01418227, "MEAN_MOTION_DDOT": 0}, "tle": {"line1": "1 66815U 25278AA  25349.91668981 -.01418227  00000+0 -95169-2 0  9999", "line2": "2 66815  42.9982 232.4982 0001299 278.1510 289.4809 15.77078000  3555"}}, "geometry": {"type": "Point", "coordinates": [84.50948040683537, -29.302385761760124]}}]}